#dP2023  4 16  0  0  0.00000000      96 __u+U ITR00 FIT  IAC
## 2258      0.00000000   900.00000000 60050 0.0000000000000
+  120   C06C07C08C09C10C11C12C13C14C16C19C20C21C22C23C24C25
+        C26C27C28C29C30C32C33C34C35C36C37C38C39C40C41C42C43
+        C44C45C46E01E02E03E04E05E07E08E09E10E11E12E13E14E15
+        E18E19E21E24E25E26E27E30E31E33E34E36G01G02G03G04G05
+        G06G07G08G09G10G11G12G13G14G15G16G17G18G19G20G21G22
+        G23G24G25G26G27G28G29G30G31G32J02J03J04R01R02R03R04
+        R05R07R08R09R11R12R13R14R15R16R17R18R19R20R21R22R24
+        R25  0  0  0  0  0  0  0  0  0  0  0  0  0  0  0  0
++         9  6  7  8  6  7  8  6  7  9  6  6  5  6  6  6  6
++         6  8  7  5  7  7  6  5  6  7  7  9  9  7  7  6  7
++         7  5  6  6  5  6  5  5  5  6  4  5  5  6  5  5  5
++         5  5  7  5  5  4  6  5  6  4  5  6  7  5  5  5  5
++         6  5  5  6  5  7  6  5  6  5  5  6  5  5  5  4  5
++         5  5  5  6  5  8  6  5  6  5  6  7  9  7  5  6  7
++         6  6  6  6  5  6  5  5  6  6  5  6  7  6  6  5  5
++         6  0  0  0  0  0  0  0  0  0  0  0  0  0  0  0  0
%c M  cc GPS ccc cccc cccc cccc cccc ccccc ccccc ccccc ccccc
%c cc cc ccc ccc cccc cccc cccc cccc ccccc ccccc ccccc ccccc
%f  0.0000000  0.000000000  0.00000000000  0.000000000000000
%f  0.0000000  0.000000000  0.00000000000  0.000000000000000
%i    0    0    0    0      0      0      0      0         0
%i    0    0    0    0      0      0      0      0         0
/* INFORMATION & ANALYSIS CENTER (IAC)      ULTRA-RAPID DATA
/* S/V CLOCKS ARE ALIGNED TO GNSS TIME                      
/* G:C1WC2W R:C1PC2P E:C1XC5X C:C2IC6I J:C1CC2S             
/* PCV:IGS20_2247 OL/AL:FES2004  NONE     YN ORB:CoN CLK:CoN
*  2023 04 16  7 15  0.00000000
PC06  -2612.900394  27709.869225 -31570.176293   -196.970713
PC07 -18097.674088  30636.348521  22532.259875    120.994392
PC08  -9284.515167  40818.470411   5774.514146    504.024261
PC09   6379.187558  31708.082077 -26343.336544    761.514673
PC10  -9225.578727  30780.540748  27359.127708    -34.504675
PC11 -14716.419903 -19276.374018 -13731.346069    303.184041
PC12   3989.924748 -15266.183366 -22984.027691    575.077419
PC13  -4688.454277  42037.037118   -551.535800    253.903621
PC14  -5509.943053 -15020.505777  22891.459178    130.105108
PC16  -5192.824355  25567.672677 -32831.495083    107.804959
PC19  14884.404245   8494.128458 -21997.593433   -901.568360
PC20  -2855.993436  18337.267033 -20810.941280    622.758376
PC21  20334.676270 -17847.891240   6917.918887   -910.199229
PC22  24962.139073  -6706.073383 -10554.684551   -533.455236
PC23 -16319.151286   -391.456788 -22631.880646   -906.872843
PC24    168.243948 -27874.747547   1012.385733   -165.423875
PC25 -12460.314689 -19040.393075 -16151.223979    107.708536
PC26  10479.739959 -20429.759841  15821.772142   -106.987636
PC27 -12769.449298  10658.996013  22386.365411    126.356278
PC28 -24305.496919  -3052.300824  13369.274189     93.074445
PC29  22589.506600  15579.849548   5047.951857    107.810261
PC30   6254.410278  18703.222639  19723.390466      0.368935
PC32 -20236.847191  17950.654771  -6799.855408   -578.142281
PC33 -14833.232664  -8548.422863  22043.477798   -873.925965
PC34  -7606.109111 -18955.943114 -19041.426736    150.045083
PC35  24703.325461   2804.611197 -12647.151835    645.147215
PC36  11682.178298  19945.233813  15658.635520   -498.020828
PC37 -11560.088152  19168.486877 -16667.729778   -789.554857
PC38 -13470.846399  37619.529690  13702.823921     72.102459
PC39 -10106.590820  22203.231907 -34328.418309     -2.571005
PC40 -24704.364820  24945.642239  23163.786730    -20.495981
PC41 -24817.407780   6201.741474  11198.713487   -857.002727
PC42   4216.747430 -18823.279565  20225.315570   -734.745174
PC43 -22093.509964 -16046.137158  -5836.070742     16.936138
PC44  12571.318551 -11169.897049 -22280.676694     77.499749
PC45  16191.608955   -104.777487  22725.281517    -85.699316
PC46    877.809339  27907.476664    524.848044    -47.350689
PE01  16404.289806   4795.697427  24162.105160      0.079038
PE02 -16659.473830  -4280.684295 -24099.480209     32.641264
PE03 -28079.822696  -5483.920442   7572.433497   -669.708341
PE04  26657.540126  -7303.170624  10609.161651   -101.683950
PE05 -12991.685722 -15349.974717  21729.064924    -76.307330
PE07  -9701.710869  16038.558935 -22894.923806    -37.980027
PE08 -26768.558061   7124.532483 -10411.444333    -68.173007
PE09   9891.749772 -15888.966745  22944.053262   -906.542438
PE10   8890.703715 -15204.893070 -23799.620272   -526.848988
PE11    646.599945 -23071.331703 -18558.208595   1622.836821
PE12  15143.997522  -5791.340594 -24768.681930   -500.713569
PE13  -1225.945301  22552.076680  19125.807125    -18.578214
PE14  25301.242271 -11372.591095 -16882.834197    198.557397
PE15 -15273.690965   5376.364478  24781.861012    -14.949242
PE18 -16566.269540   9439.217084  13706.866659   -159.830296
PE19  26922.408657   7174.687608  -9978.446909  -2754.055491
PE21   3825.015041  21084.801735  20414.834645   -523.669674
PE24  12516.985188 -26507.506805  -4036.366883    -47.018404
PE25  -3561.489271 -21298.739682 -20242.257661   -603.370123
PE26  13780.463979  26147.183330   1545.839973     76.704881
PE27 -11940.525277  26672.085864   4743.190915    -26.336366
PE30 -20680.099281  15897.836200 -14019.978765    -97.000466
PE31  20505.370177 -16485.746008  13558.822586   -521.430527
PE33  20185.992799  14818.739987 -15769.503874   -446.221108
PE34 -20223.356637 -14659.991563  15875.756352    -40.483304
PE36 -13368.225694 -26315.713231  -2339.573106    -42.110970
PG01 -17006.149588  -6040.433965  19285.398939    192.886901
PG02  11627.105959  -9375.489088 -21505.810340   -605.546873
PG03 -18385.301189   5947.338579  18041.892161   -327.969640
PG04 -26399.774371     42.391185  -3420.156999     18.051531
PG05  11293.466221  10527.700369 -21772.022653   -123.591729
PG06   3450.616909  23738.576852  11354.853386    586.967811
PG07 -11987.876624   9720.209262 -21125.738031    200.245070
PG08 -24322.930940  -6888.238345  -8845.032554   -117.984009
PG09 -21715.618773   8406.871407 -12886.120864   -178.991098
PG10  10102.128833 -23565.916628   6455.224625    -33.032472
PG11  12433.489526  23334.542921  -2712.834928   -164.175979
PG12  18172.848795  -2342.716295  18912.744768   -364.528428
PG13  18692.803378  13258.294115 -13771.832558    506.464382
PG14 -12880.318453  22869.765443   3534.107539     26.643882
PG15  24969.678748   4428.874346  -8792.503714     31.067292
PG16  -7985.728445 -13852.151051 -21438.767313   -508.467527
PG17  -9012.541694  13581.120558  21421.400504    710.792646
PG18   9267.772487 -13459.150322 -20906.685468   -226.314116
PG19   1853.650020  15141.579145  21544.251133    304.312558
PG20   5381.144115  19247.199629 -17556.161561    438.769893
PG21 -19449.693330 -13075.841202  13830.915261    154.202609
PG22  -5476.344855 -15673.866973  21213.067473    465.000103
PG23  16604.829995 -19848.625968  -5613.841523     17.190865
PG24  19320.237156   9084.025700  15701.401122   -153.621885
PG25  18910.742780 -13528.150166  12273.654149    435.964373
PG26    806.682654 -22503.139042 -13931.103905    241.704340
PG27 -15961.116830 -12808.112766 -17400.344165     57.846137
PG28  -2664.932617 -23155.987816  12713.117926     65.695322
PG29  24377.827968  -3652.874316 -10056.584247   -595.715446
PG30  -3498.238252  20310.176951 -16500.491438   -522.128830
PG31  -7705.101275 -24595.912029   5206.307241   -214.078039
PG32   5113.869559 -14890.284796  21546.111188   -452.769692
PJ02 -26619.463636  32162.084535  -1690.609233     -1.541594
PJ03 -26427.593148  22008.002270  29471.685482      2.391625
PJ04 -34164.808863  24313.405397    178.048741     94.199959
PR01  -4972.777283  -9863.046914  22999.951304     26.760247
PR02 -20668.996225    100.942820  15041.531739    -22.942027
PR03 -23584.627694   9675.495802  -1473.050240     76.111921
PR04 -13550.937080  13426.057427 -16904.854482    183.504752
PR05   3842.157292  10055.170697 -23107.381043    111.037338
PR07  23299.469229 -10035.418455   2463.379368     53.919891
PR08  13177.037990 -13615.722373  17127.416561    -70.369650
PR09  10266.778939   6707.278761  22371.890886    114.989669
PR11   6606.311232 -23783.478647   6472.253609    -36.955598
PR12  -2504.283695 -22181.076282 -12308.918463     26.485590
PR13  -9407.640933  -8812.882115 -22027.900937    -34.030730
PR14 -11332.535763  12037.281104 -19410.076133     24.554201
PR15  -6355.514118  24134.728943  -5246.624490     89.772191
PR16   2457.343830  22312.281102  12090.529638     13.570968
PR17 -14883.852312    -91.882608  20709.902102    621.642417
PR18  -1430.425937  11996.765636  22466.874431     76.778283
PR19  11312.015319  18276.565874  13728.920318   -229.232902
PR20  20150.473042  14134.793663  -6597.849557    -91.216516
PR21  13778.370286  -1054.613973 -21448.892808     -0.372571
PR22   1225.781935 -12843.047790 -21985.140726     79.550136
PR24 -20743.106369 -12999.471317   7169.849867    162.338117
PR25  15203.283282    785.555573 -20469.537329     61.910692
EOF
